{
  "norad_id": 62080,
  "name": "SUPERVIEW NEO-2 04",
  "history": [
    {
      "epoch": "2026-03-27T12:53:35.916000Z",
      "apogee_km": 507.54601472000104,
      "perigee_km": 505.8151715770846,
      "latitude_deg": 7.526919932985441e-06,
      "longitude_deg": 76.66244961554013,
      "height_km": 510.08486046738125,
      "semi_major_axis_km": 6884.817593148543,
      "eccentricity": 0.0001257,
      "inclination_deg": 97.439,
      "raan_deg": 95.0327,
      "arg_perigee_deg": 111.4891,
      "mean_anomaly_deg": 248.6478,
      "mean_motion_rev_day": 15.19721838
    },
    {
      "epoch": "2026-03-31T11:42:29.284416Z",
      "apogee_km": 507.5939784669663,
      "perigee_km": 505.7832693278815,
      "latitude_deg": -7.340985227414048e-05,
      "longitude_deg": 94.44038658583978,
      "height_km": 510.11312996209887,
      "semi_major_axis_km": 6884.825623897424,
      "eccentricity": 0.0001315,
      "inclination_deg": 97.4394,
      "raan_deg": 98.9269,
      "arg_perigee_deg": 111.8768,
      "mean_anomaly_deg": 248.2606,
      "mean_motion_rev_day": 15.19719179
    },
    {
      "epoch": "2026-04-01T12:59:31.490880Z",
      "apogee_km": 507.590323524626,
      "perigee_km": 505.7796153466643,
      "latitude_deg": 2.0797144828129183e-06,
      "longitude_deg": 75.18050979439433,
      "height_km": 510.1736649999527,
      "semi_major_axis_km": 6884.821969435645,
      "eccentricity": 0.0001315,
      "inclination_deg": 97.4395,
      "raan_deg": 99.9646,
      "arg_perigee_deg": 116.3232,
      "mean_anomaly_deg": 243.8138,
      "mean_motion_rev_day": 15.19720389
    }
  ]
}